ONEWEB-0349             
1 49281U 21090C   24338.55174719  .00000109  00000+0  23552-3 0  9994
2 49281  87.9272  25.9873 0001923  96.0913 264.0439 13.20770333155826
ONEWEB-0353             
1 49282U 21090D   24338.60322761 -.00000059  00000+0 -19485-3 0  9999
2 49282  87.9024  41.1831 0001763  91.6587 268.4745 13.14504175153936
ONEWEB-0356             
1 49283U 21090E   24338.55018197  .00000081  00000+0  16718-3 0  9998
2 49283  87.9278  25.9807 0002862  98.5323 261.6135 13.20773308155827
ONEWEB-0358             
1 49284U 21090F   24338.58016920  .00000037  00000+0  59549-4 0  9995
2 49284  87.9270  25.9629 0002059 103.5475 256.5887 13.20772882156559
ONEWEB-0359             
1 49285U 21090G   24338.57701666  .00000058  00000+0  11182-3 0  9996
2 49285  87.9267  25.9789 0001816 112.1096 248.0230 13.20771491156539
ONEWEB-0360             
1 49286U 21090H   24338.56754086  .00000113  00000+0  24649-3 0  9994
2 49286  87.9265  25.9861 0001807 103.6519 256.4815 13.20770696155845
ONEWEB-0361             
1 49287U 21090J   24338.54860822  .00000139  00000+0  30889-3 0  9990
2 49287  87.9268  25.9846 0001978  96.7700 263.3659 13.20771665156295
ONEWEB-0362             
1 49288U 21090K   24338.58786119  .00000029  00000+0  40383-4 0  9990
2 49288  87.9190  56.4617 0001476 105.4245 254.7050 13.19724374152973
